{"type":"FeatureCollection","features":[{"type":"Feature","properties":{"name":"Sample point 1","category":"value1","year":"2019","month":"3"},"geometry":{"type":"Point","coordinates":[7.63829,45.0874]}},{"type":"Feature","properties":{"name":"Sample point 2","category":"value1","year":"2022","month":"1"},"geometry":{"type":"Point","coordinates":[7.69394,45.06694]}},{"type":"Feature","properties":{"name":"Sample point 3","category":"value3","year":"2019","month":"2"},"geometry":{"type":"Point","coordinates":[7.74752,45.10541]}},{"type":"Feature","properties":{"name":"Sample point 4","category":"value4","year":"2019","month":"11"},"geometry":{"type":"Point","coordinates":[7.67622,45.06609]}},{"type":"Feature","properties":{"name":"Sample point 5","category":"value1","year":"2021","month":"11"},"geometry":{"type":"Point","coordinates":[7.73525,45.10517]}},{"type":"Feature","properties":{"name":"Sample point 6","category":"value1","year":"2019","month":"11"},"geometry":{"type":"Point","coordinates":[7.74936,45.10736]}},{"type":"Feature","properties":{"name":"Sample point 7","category":"value2","year":"2022","month":"3"},"geometry":{"type":"Point","coordinates":[7.67157,45.06538]}},{"type":"Feature","properties":{"name":"Sample point 8","category":"value1","year":"2020","month":"12"},"geometry":{"type":"Point","coordinates":[7.69557,45.01524]}},{"type":"Feature","properties":{"name":"Sample point 9","category":"value2","year":"2021","month":"12"},"geometry":{"type":"Point","coordinates":[7.74573,45.10404]}},{"type":"Feature","properties":{"name":"Sample point 10","category":"value1","year":"2022","month":"2"},"geometry":{"type":"Point","coordinates":[7.69897,45.04479]}},{"type":"Feature","properties":{"name":"Sample point 11","category":"value1","year":"2019","month":"11"},"geometry":{"type":"Point","coordinates":[7.63493,45.09881]}},{"type":"Feature","properties":{"name":"Sample point 12","category":"value2","year":"2022","month":"1"},"geometry":{"type":"Point","coordinates":[7.62092,45.09735]}},{"type":"Feature","properties":{"name":"Sample point 13","category":"value2","year":"2019","month":"12"},"geometry":{"type":"Point","coordinates":[7.69969,45.06682]}},{"type":"Feature","properties":{"name":"Sample point 14","category":"value3","year":"2021","month":"12"},"geometry":{"type":"Point","coordinates":[7.6041,45.06764]}},{"type":"Feature","properties":{"name":"Sample point 15","category":"value4","year":"2021","month":"2"},"geometry":{"type":"Point","coordinates":[7.7153,45.01489]}},{"type":"Feature","properties":{"name":"Sample point 16","category":"value1","year":"2020","month":"10"},"geometry":{"type":"Point","coordinates":[7.67849,45.07055]}},{"type":"Feature","properties":{"name":"Sample point 17","category":"value1","year":"2022","month":"11"},"geometry":{"type":"Point","coordinates":[7.71908,45.01504]}},{"type":"Feature","properties":{"name":"Sample point 18","category":"value3","year":"2021","month":"12"},"geometry":{"type":"Point","coordinates":[7.6434,45.07916]}},{"type":"Feature","properties":{"name":"Sample point 19","category":"value1","year":"2020","month":"2"},"geometry":{"type":"Point","coordinates":[7.72502,45.01914]}},{"type":"Feature","properties":{"name":"Sample point 20","category":"value1","year":"2022","month":"11"},"geometry":{"type":"Point","coordinates":[7.6908,45.07615]}},{"type":"Feature","properties":{"name":"Sample point 21","category":"value1","year":"2021","month":"11"},"geometry":{"type":"Point","coordinates":[7.73681,45.10111]}},{"type":"Feature","properties":{"name":"Sample point 22","category":"value2","year":"2019","month":"10"},"geometry":{"type":"Point","coordinates":[7.64449,45.0863]}},{"type":"Feature","properties":{"name":"Sample point 23","category":"value2","year":"2022","month":"1"},"geometry":{"type":"Point","coordinates":[7.69727,45.02568]}},{"type":"Feature","properties":{"name":"Sample point 24","category":"value1","year":"2021","month":"11"},"geometry":{"type":"Point","coordinates":[7.74439,45.10283]}},{"type":"Feature","properties":{"name":"Sample point 25","category":"value2","year":"2021","month":"11"},"geometry":{"type":"Point","coordinates":[7.69932,45.07728]}},{"type":"Feature","properties":{"name":"Sample point 26","category":"value1","year":"2021","month":"3"},"geometry":{"type":"Point","coordinates":[7.69431,45.07293]}},{"type":"Feature","properties":{"name":"Sample point 27","category":"value2","year":"2022","month":"10"},"geometry":{"type":"Point","coordinates":[7.62104,45.09102]}},{"type":"Feature","properties":{"name":"Sample point 28","category":"value3","year":"2021","month":"10"},"geometry":{"type":"Point","coordinates":[7.70436,45.02495]}},{"type":"Feature","properties":{"name":"Sample point 29","category":"value4","year":"2021","month":"2"},"geometry":{"type":"Point","coordinates":[7.72881,45.09968]}},{"type":"Feature","properties":{"name":"Sample point 30","category":"value2","year":"2019","month":"12"},"geometry":{"type":"Point","coordinates":[7.68742,45.06274]}},{"type":"Feature","properties":{"name":"Sample point 31","category":"value1","year":"2020","month":"11"},"geometry":{"type":"Point","coordinates":[7.60085,45.08803]}},{"type":"Feature","properties":{"name":"Sample point 32","category":"value3","year":"2020","month":"2"},"geometry":{"type":"Point","coordinates":[7.61607,45.08092]}},{"type":"Feature","properties":{"name":"Sample point 33","category":"value2","year":"2021","month":"12"},"geometry":{"type":"Point","coordinates":[7.70635,45.01386]}},{"type":"Feature","properties":{"name":"Sample point 34","category":"value2","year":"2020","month":"12"},"geometry":{"type":"Point","coordinates":[7.70806,45.06926]}},{"type":"Feature","properties":{"name":"Sample point 35","category":"value4","year":"2021","month":"1"},"geometry":{"type":"Point","coordinates":[7.60022,45.09719]}},{"type":"Feature","properties":{"name":"Sample point 36","category":"value1","year":"2022","month":"11"},"geometry":{"type":"Point","coordinates":[7.74773,45.10637]}},{"type":"Feature","properties":{"name":"Sample point 37","category":"value3","year":"2019","month":"12"},"geometry":{"type":"Point","coordinates":[7.66959,45.07198]}},{"type":"Feature","properties":{"name":"Sample point 38","category":"value3","year":"2022","month":"2"},"geometry":{"type":"Point","coordinates":[7.70458,45.06186]}},{"type":"Feature","properties":{"name":"Sample point 39","category":"value3","year":"2022","month":"10"},"geometry":{"type":"Point","coordinates":[7.70953,45.01245]}},{"type":"Feature","properties":{"name":"Sample point 40","category":"value1","year":"2020","month":"1"},"geometry":{"type":"Point","coordinates":[7.70669,45.01651]}},{"type":"Feature","properties":{"name":"Sample point 41","category":"value2","year":"2022","month":"12"},"geometry":{"type":"Point","coordinates":[7.7256,45.09486]}},{"type":"Feature","properties":{"name":"Sample point 42","category":"value1","year":"2019","month":"11"},"geometry":{"type":"Point","coordinates":[7.63533,45.09972]}},{"type":"Feature","properties":{"name":"Sample point 43","category":"value3","year":"2020","month":"1"},"geometry":{"type":"Point","coordinates":[7.71465,45.10767]}},{"type":"Feature","properties":{"name":"Sample point 44","category":"value3","year":"2021","month":"3"},"geometry":{"type":"Point","coordinates":[7.63018,45.10063]}},{"type":"Feature","properties":{"name":"Sample point 45","category":"value3","year":"2022","month":"12"},"geometry":{"type":"Point","coordinates":[7.70905,45.01755]}},{"type":"Feature","properties":{"name":"Sample point 46","category":"value1","year":"2020","month":"11"},"geometry":{"type":"Point","coordinates":[7.71837,45.00396]}},{"type":"Feature","properties":{"name":"Sample point 47","category":"value2","year":"2020","month":"2"},"geometry":{"type":"Point","coordinates":[7.70139,45.05913]}},{"type":"Feature","properties":{"name":"Sample point 48","category":"value2","year":"2021","month":"12"},"geometry":{"type":"Point","coordinates":[7.71788,45.1027]}},{"type":"Feature","properties":{"name":"Sample point 49","category":"value2","year":"2020","month":"2"},"geometry":{"type":"Point","coordinates":[7.70811,45.01614]}},{"type":"Feature","properties":{"name":"Sample point 50","category":"value1","year":"2019","month":"1"},"geometry":{"type":"Point","coordinates":[7.63215,45.09137]}},{"type":"Feature","properties":{"name":"Sample point 51","category":"value2","year":"2020","month":"12"},"geometry":{"type":"Point","coordinates":[7.69212,45.04185]}},{"type":"Feature","properties":{"name":"Sample point 52","category":"value2","year":"2020","month":"12"},"geometry":{"type":"Point","coordinates":[7.61274,45.09358]}},{"type":"Feature","properties":{"name":"Sample point 53","category":"value1","year":"2022","month":"2"},"geometry":{"type":"Point","coordinates":[7.64933,45.08143]}},{"type":"Feature","properties":{"name":"Sample point 54","category":"value1","year":"2020","month":"10"},"geometry":{"type":"Point","coordinates":[7.71626,45.02703]}},{"type":"Feature","properties":{"name":"Sample point 55","category":"value1","year":"2020","month":"12"},"geometry":{"type":"Point","coordinates":[7.68927,45.07773]}},{"type":"Feature","properties":{"name":"Sample point 56","category":"value4","year":"2020","month":"12"},"geometry":{"type":"Point","coordinates":[7.64238,45.10488]}},{"type":"Feature","properties":{"name":"Sample point 57","category":"value4","year":"2020","month":"2"},"geometry":{"type":"Point","coordinates":[7.67577,45.07651]}},{"type":"Feature","properties":{"name":"Sample point 58","category":"value1","year":"2021","month":"3"},"geometry":{"type":"Point","coordinates":[7.7191,45.01996]}},{"type":"Feature","properties":{"name":"Sample point 59","category":"value2","year":"2022","month":"12"},"geometry":{"type":"Point","coordinates":[7.68649,45.06854]}},{"type":"Feature","properties":{"name":"Sample point 60","category":"value1","year":"2019","month":"1"},"geometry":{"type":"Point","coordinates":[7.67607,45.07752]}},{"type":"Feature","properties":{"name":"Sample point 61","category":"value1","year":"2019","month":"2"},"geometry":{"type":"Point","coordinates":[7.74246,45.09955]}},{"type":"Feature","properties":{"name":"Sample point 62","category":"value3","year":"2021","month":"10"},"geometry":{"type":"Point","coordinates":[7.62771,45.07365]}},{"type":"Feature","properties":{"name":"Sample point 63","category":"value2","year":"2021","month":"1"},"geometry":{"type":"Point","coordinates":[7.72285,45.09783]}},{"type":"Feature","properties":{"name":"Sample point 64","category":"value1","year":"2019","month":"3"},"geometry":{"type":"Point","coordinates":[7.64404,45.09516]}},{"type":"Feature","properties":{"name":"Sample point 65","category":"value1","year":"2020","month":"1"},"geometry":{"type":"Point","coordinates":[7.67257,45.05819]}},{"type":"Feature","properties":{"name":"Sample point 66","category":"value1","year":"2022","month":"3"},"geometry":{"type":"Point","coordinates":[7.63549,45.08278]}},{"type":"Feature","properties":{"name":"Sample point 67","category":"value4","year":"2020","month":"3"},"geometry":{"type":"Point","coordinates":[7.75508,45.10409]}},{"type":"Feature","properties":{"name":"Sample point 68","category":"value2","year":"2020","month":"3"},"geometry":{"type":"Point","coordinates":[7.69857,45.08926]}},{"type":"Feature","properties":{"name":"Sample point 69","category":"value1","year":"2019","month":"3"},"geometry":{"type":"Point","coordinates":[7.69939,45.0203]}},{"type":"Feature","properties":{"name":"Sample point 70","category":"value2","year":"2020","month":"11"},"geometry":{"type":"Point","coordinates":[7.70631,45.07171]}},{"type":"Feature","properties":{"name":"Sample point 71","category":"value2","year":"2022","month":"12"},"geometry":{"type":"Point","coordinates":[7.70725,45.03009]}},{"type":"Feature","properties":{"name":"Sample point 72","category":"value4","year":"2021","month":"12"},"geometry":{"type":"Point","coordinates":[7.68279,45.01494]}},{"type":"Feature","properties":{"name":"Sample point 73","category":"value3","year":"2020","month":"10"},"geometry":{"type":"Point","coordinates":[7.74783,45.09939]}},{"type":"Feature","properties":{"name":"Sample point 74","category":"value1","year":"2021","month":"10"},"geometry":{"type":"Point","coordinates":[7.64961,45.08835]}},{"type":"Feature","properties":{"name":"Sample point 75","category":"value1","year":"2021","month":"11"},"geometry":{"type":"Point","coordinates":[7.75359,45.10484]}},{"type":"Feature","properties":{"name":"Sample point 76","category":"value1","year":"2021","month":"10"},"geometry":{"type":"Point","coordinates":[7.73561,45.09774]}},{"type":"Feature","properties":{"name":"Sample point 77","category":"value4","year":"2021","month":"2"},"geometry":{"type":"Point","coordinates":[7.68435,45.09322]}},{"type":"Feature","properties":{"name":"Sample point 78","category":"value1","year":"2019","month":"3"},"geometry":{"type":"Point","coordinates":[7.69699,45.06864]}},{"type":"Feature","properties":{"name":"Sample point 79","category":"value2","year":"2020","month":"11"},"geometry":{"type":"Point","coordinates":[7.71529,45.02396]}},{"type":"Feature","properties":{"name":"Sample point 80","category":"value1","year":"2019","month":"10"},"geometry":{"type":"Point","coordinates":[7.70551,45.07926]}},{"type":"Feature","properties":{"name":"Sample point 81","category":"value1","year":"2020","month":"12"},"geometry":{"type":"Point","coordinates":[7.68171,45.08237]}},{"type":"Feature","properties":{"name":"Sample point 82","category":"value2","year":"2021","month":"12"},"geometry":{"type":"Point","coordinates":[7.70862,45.00598]}},{"type":"Feature","properties":{"name":"Sample point 83","category":"value3","year":"2022","month":"12"},"geometry":{"type":"Point","coordinates":[7.75883,45.10494]}},{"type":"Feature","properties":{"name":"Sample point 84","category":"value2","year":"2019","month":"12"},"geometry":{"type":"Point","coordinates":[7.75383,45.09223]}},{"type":"Feature","properties":{"name":"Sample point 85","category":"value2","year":"2019","month":"10"},"geometry":{"type":"Point","coordinates":[7.73992,45.10164]}},{"type":"Feature","properties":{"name":"Sample point 86","category":"value2","year":"2020","month":"10"},"geometry":{"type":"Point","coordinates":[7.69116,45.01575]}},{"type":"Feature","properties":{"name":"Sample point 87","category":"value3","year":"2019","month":"12"},"geometry":{"type":"Point","coordinates":[7.64835,45.09064]}},{"type":"Feature","properties":{"name":"Sample point 88","category":"value3","year":"2021","month":"2"},"geometry":{"type":"Point","coordinates":[7.68653,45.0601]}},{"type":"Feature","properties":{"name":"Sample point 89","category":"value2","year":"2022","month":"1"},"geometry":{"type":"Point","coordinates":[7.739,45.11324]}},{"type":"Feature","properties":{"name":"Sample point 90","category":"value1","year":"2020","month":"1"},"geometry":{"type":"Point","coordinates":[7.71525,45.01635]}},{"type":"Feature","properties":{"name":"Sample point 91","category":"value2","year":"2020","month":"1"},"geometry":{"type":"Point","coordinates":[7.72834,45.11168]}},{"type":"Feature","properties":{"name":"Sample point 92","category":"value2","year":"2020","month":"12"},"geometry":{"type":"Point","coordinates":[7.71571,45.02295]}},{"type":"Feature","properties":{"name":"Sample point 93","category":"value2","year":"2022","month":"1"},"geometry":{"type":"Point","coordinates":[7.70323,45.0308]}},{"type":"Feature","properties":{"name":"Sample point 94","category":"value2","year":"2021","month":"10"},"geometry":{"type":"Point","coordinates":[7.73498,45.10383]}},{"type":"Feature","properties":{"name":"Sample point 95","category":"value1","year":"2021","month":"10"},"geometry":{"type":"Point","coordinates":[7.70029,45.04892]}},{"type":"Feature","properties":{"name":"Sample point 96","category":"value1","year":"2019","month":"2"},"geometry":{"type":"Point","coordinates":[7.76089,45.08989]}},{"type":"Feature","properties":{"name":"Sample point 97","category":"value3","year":"2021","month":"1"},"geometry":{"type":"Point","coordinates":[7.63302,45.0889]}},{"type":"Feature","properties":{"name":"Sample point 98","category":"value2","year":"2019","month":"2"},"geometry":{"type":"Point","coordinates":[7.62989,45.10939]}},{"type":"Feature","properties":{"name":"Sample point 99","category":"value1","year":"2020","month":"10"},"geometry":{"type":"Point","coordinates":[7.70416,45.06609]}},{"type":"Feature","properties":{"name":"Sample point 100","category":"value1","year":"2021","month":"3"},"geometry":{"type":"Point","coordinates":[7.62256,45.09351]}},{"type":"Feature","properties":{"name":"Sample point 101","category":"value2","year":"2021","month":"3"},"geometry":{"type":"Point","coordinates":[7.72688,45.03438]}},{"type":"Feature","properties":{"name":"Sample point 102","category":"value3","year":"2019","month":"3"},"geometry":{"type":"Point","coordinates":[7.63785,45.09385]}},{"type":"Feature","properties":{"name":"Sample point 103","category":"value1","year":"2019","month":"12"},"geometry":{"type":"Point","coordinates":[7.70774,45.00265]}},{"type":"Feature","properties":{"name":"Sample point 104","category":"value4","year":"2022","month":"11"},"geometry":{"type":"Point","coordinates":[7.62239,45.08647]}},{"type":"Feature","properties":{"name":"Sample point 105","category":"value4","year":"2019","month":"12"},"geometry":{"type":"Point","coordinates":[7.63118,45.09839]}},{"type":"Feature","properties":{"name":"Sample point 106","category":"value2","year":"2019","month":"1"},"geometry":{"type":"Point","coordinates":[7.73131,45.00923]}},{"type":"Feature","properties":{"name":"Sample point 107","category":"value2","year":"2021","month":"10"},"geometry":{"type":"Point","coordinates":[7.68779,45.02487]}},{"type":"Feature","properties":{"name":"Sample point 108","category":"value1","year":"2022","month":"3"},"geometry":{"type":"Point","coordinates":[7.6998,45.06432]}},{"type":"Feature","properties":{"name":"Sample point 109","category":"value4","year":"2021","month":"10"},"geometry":{"type":"Point","coordinates":[7.62108,45.10439]}},{"type":"Feature","properties":{"name":"Sample point 110","category":"value1","year":"2020","month":"12"},"geometry":{"type":"Point","coordinates":[7.73209,45.11121]}},{"type":"Feature","properties":{"name":"Sample point 111","category":"value3","year":"2020","month":"10"},"geometry":{"type":"Point","coordinates":[7.74949,45.10513]}},{"type":"Feature","properties":{"name":"Sample point 112","category":"value1","year":"2020","month":"2"},"geometry":{"type":"Point","coordinates":[7.64002,45.09008]}},{"type":"Feature","properties":{"name":"Sample point 113","category":"value1","year":"2021","month":"3"},"geometry":{"type":"Point","coordinates":[7.69387,45.08051]}},{"type":"Feature","properties":{"name":"Sample point 114","category":"value1","year":"2022","month":"12"},"geometry":{"type":"Point","coordinates":[7.75207,45.09055]}},{"type":"Feature","properties":{"name":"Sample point 115","category":"value1","year":"2021","month":"11"},"geometry":{"type":"Point","coordinates":[7.7291,45.10601]}},{"type":"Feature","properties":{"name":"Sample point 116","category":"value2","year":"2020","month":"1"},"geometry":{"type":"Point","coordinates":[7.63688,45.09787]}},{"type":"Feature","properties":{"name":"Sample point 117","category":"value2","year":"2022","month":"3"},"geometry":{"type":"Point","coordinates":[7.63632,45.08494]}},{"type":"Feature","properties":{"name":"Sample point 118","category":"value3","year":"2022","month":"11"},"geometry":{"type":"Point","coordinates":[7.6957,45.07709]}},{"type":"Feature","properties":{"name":"Sample point 119","category":"value4","year":"2022","month":"10"},"geometry":{"type":"Point","coordinates":[7.71886,45.02031]}},{"type":"Feature","properties":{"name":"Sample point 120","category":"value1","year":"2019","month":"12"},"geometry":{"type":"Point","coordinates":[7.73866,45.09403]}},{"type":"Feature","properties":{"name":"Sample point 121","category":"value1","year":"2020","month":"2"},"geometry":{"type":"Point","coordinates":[7.72479,45.02824]}},{"type":"Feature","properties":{"name":"Sample point 122","category":"value1","year":"2021","month":"11"},"geometry":{"type":"Point","coordinates":[7.68067,45.06423]}},{"type":"Feature","properties":{"name":"Sample point 123","category":"value1","year":"2020","month":"10"},"geometry":{"type":"Point","coordinates":[7.70504,45.01614]}},{"type":"Feature","properties":{"name":"Sample point 124","category":"value1","year":"2021","month":"10"},"geometry":{"type":"Point","coordinates":[7.62959,45.10233]}},{"type":"Feature","properties":{"name":"Sample point 125","category":"value3","year":"2022","month":"11"},"geometry":{"type":"Point","coordinates":[7.64359,45.087]}},{"type":"Feature","properties":{"name":"Sample point 126","category":"value1","year":"2021","month":"1"},"geometry":{"type":"Point","coordinates":[7.7341,45.09966]}},{"type":"Feature","properties":{"name":"Sample point 127","category":"value2","year":"2019","month":"3"},"geometry":{"type":"Point","coordinates":[7.69548,45.08787]}},{"type":"Feature","properties":{"name":"Sample point 128","category":"value1","year":"2019","month":"12"},"geometry":{"type":"Point","coordinates":[7.72334,45.08251]}},{"type":"Feature","properties":{"name":"Sample point 129","category":"value1","year":"2019","month":"3"},"geometry":{"type":"Point","coordinates":[7.62465,45.08193]}},{"type":"Feature","properties":{"name":"Sample point 130","category":"value1","year":"2020","month":"2"},"geometry":{"type":"Point","coordinates":[7.69572,45.09318]}},{"type":"Feature","properties":{"name":"Sample point 131","category":"value1","year":"2022","month":"11"},"geometry":{"type":"Point","coordinates":[7.71052,45.03527]}},{"type":"Feature","properties":{"name":"Sample point 132","category":"value4","year":"2019","month":"11"},"geometry":{"type":"Point","coordinates":[7.7479,45.09402]}},{"type":"Feature","properties":{"name":"Sample point 133","category":"value1","year":"2020","month":"10"},"geometry":{"type":"Point","coordinates":[7.74044,45.09888]}},{"type":"Feature","properties":{"name":"Sample point 134","category":"value1","year":"2021","month":"12"},"geometry":{"type":"Point","coordinates":[7.68499,45.06474]}},{"type":"Feature","properties":{"name":"Sample point 135","category":"value1","year":"2020","month":"12"},"geometry":{"type":"Point","coordinates":[7.71469,45.06998]}},{"type":"Feature","properties":{"name":"Sample point 136","category":"value1","year":"2021","month":"3"},"geometry":{"type":"Point","coordinates":[7.72428,45.02295]}},{"type":"Feature","properties":{"name":"Sample point 137","category":"value1","year":"2021","month":"10"},"geometry":{"type":"Point","coordinates":[7.70734,45.0209]}},{"type":"Feature","properties":{"name":"Sample point 138","category":"value1","year":"2021","month":"10"},"geometry":{"type":"Point","coordinates":[7.66814,45.06461]}},{"type":"Feature","properties":{"name":"Sample point 139","category":"value1","year":"2022","month":"2"},"geometry":{"type":"Point","coordinates":[7.69985,45.0734]}},{"type":"Feature","properties":{"name":"Sample point 140","category":"value1","year":"2022","month":"2"},"geometry":{"type":"Point","coordinates":[7.61007,45.10475]}},{"type":"Feature","properties":{"name":"Sample point 141","category":"value1","year":"2019","month":"3"},"geometry":{"type":"Point","coordinates":[7.70999,45.02091]}},{"type":"Feature","properties":{"name":"Sample point 142","category":"value1","year":"2021","month":"3"},"geometry":{"type":"Point","coordinates":[7.73646,45.08105]}},{"type":"Feature","properties":{"name":"Sample point 143","category":"value1","year":"2021","month":"3"},"geometry":{"type":"Point","coordinates":[7.68544,45.08455]}},{"type":"Feature","properties":{"name":"Sample point 144","category":"value3","year":"2019","month":"1"},"geometry":{"type":"Point","coordinates":[7.68403,45.05838]}},{"type":"Feature","properties":{"name":"Sample point 145","category":"value2","year":"2022","month":"3"},"geometry":{"type":"Point","coordinates":[7.75177,45.10921]}},{"type":"Feature","properties":{"name":"Sample point 146","category":"value2","year":"2019","month":"12"},"geometry":{"type":"Point","coordinates":[7.70944,45.01589]}},{"type":"Feature","properties":{"name":"Sample point 147","category":"value2","year":"2021","month":"3"},"geometry":{"type":"Point","coordinates":[7.63602,45.0764]}},{"type":"Feature","properties":{"name":"Sample point 148","category":"value1","year":"2020","month":"10"},"geometry":{"type":"Point","coordinates":[7.69336,45.03229]}},{"type":"Feature","properties":{"name":"Sample point 149","category":"value1","year":"2021","month":"2"},"geometry":{"type":"Point","coordinates":[7.73697,45.10359]}},{"type":"Feature","properties":{"name":"Sample point 150","category":"value1","year":"2019","month":"2"},"geometry":{"type":"Point","coordinates":[7.7334,45.00244]}},{"type":"Feature","properties":{"name":"Sample point 151","category":"value4","year":"2020","month":"2"},"geometry":{"type":"Point","coordinates":[7.65538,45.08309]}},{"type":"Feature","properties":{"name":"Sample point 152","category":"value2","year":"2019","month":"3"},"geometry":{"type":"Point","coordinates":[7.72243,45.10655]}},{"type":"Feature","properties":{"name":"Sample point 153","category":"value1","year":"2021","month":"2"},"geometry":{"type":"Point","coordinates":[7.62516,45.09728]}},{"type":"Feature","properties":{"name":"Sample point 154","category":"value1","year":"2020","month":"3"},"geometry":{"type":"Point","coordinates":[7.70705,45.02705]}},{"type":"Feature","properties":{"name":"Sample point 155","category":"value2","year":"2020","month":"12"},"geometry":{"type":"Point","coordinates":[7.65711,45.08739]}},{"type":"Feature","properties":{"name":"Sample point 156","category":"value1","year":"2022","month":"2"},"geometry":{"type":"Point","coordinates":[7.66589,45.04763]}},{"type":"Feature","properties":{"name":"Sample point 157","category":"value1","year":"2019","month":"1"},"geometry":{"type":"Point","coordinates":[7.70986,45.01898]}},{"type":"Feature","properties":{"name":"Sample point 158","category":"value1","year":"2019","month":"3"},"geometry":{"type":"Point","coordinates":[7.71873,45.09033]}},{"type":"Feature","properties":{"name":"Sample point 159","category":"value3","year":"2019","month":"1"},"geometry":{"type":"Point","coordinates":[7.72806,45.10249]}},{"type":"Feature","properties":{"name":"Sample point 160","category":"value1","year":"2020","month":"3"},"geometry":{"type":"Point","coordinates":[7.62922,45.09875]}},{"type":"Feature","properties":{"name":"Sample point 161","category":"value1","year":"2019","month":"3"},"geometry":{"type":"Point","coordinates":[7.67276,45.06266]}},{"type":"Feature","properties":{"name":"Sample point 162","category":"value1","year":"2020","month":"1"},"geometry":{"type":"Point","coordinates":[7.70356,45.01512]}},{"type":"Feature","properties":{"name":"Sample point 163","category":"value1","year":"2022","month":"12"},"geometry":{"type":"Point","coordinates":[7.70276,45.01933]}},{"type":"Feature","properties":{"name":"Sample point 164","category":"value1","year":"2021","month":"10"},"geometry":{"type":"Point","coordinates":[7.73353,45.09728]}},{"type":"Feature","properties":{"name":"Sample point 165","category":"value1","year":"2021","month":"10"},"geometry":{"type":"Point","coordinates":[7.62074,45.08216]}},{"type":"Feature","properties":{"name":"Sample point 166","category":"value3","year":"2020","month":"10"},"geometry":{"type":"Point","coordinates":[7.72724,45.02205]}},{"type":"Feature","properties":{"name":"Sample point 167","category":"value3","year":"2022","month":"1"},"geometry":{"type":"Point","coordinates":[7.70727,45.02124]}},{"type":"Feature","properties":{"name":"Sample point 168","category":"value2","year":"2020","month":"2"},"geometry":{"type":"Point","coordinates":[7.66624,45.08066]}},{"type":"Feature","properties":{"name":"Sample point 169","category":"value3","year":"2022","month":"1"},"geometry":{"type":"Point","coordinates":[7.69321,45.07189]}},{"type":"Feature","properties":{"name":"Sample point 170","category":"value1","year":"2020","month":"11"},"geometry":{"type":"Point","coordinates":[7.62631,45.08479]}},{"type":"Feature","properties":{"name":"Sample point 171","category":"value2","year":"2020","month":"3"},"geometry":{"type":"Point","coordinates":[7.74204,45.09835]}},{"type":"Feature","properties":{"name":"Sample point 172","category":"value4","year":"2021","month":"1"},"geometry":{"type":"Point","coordinates":[7.73877,45.09801]}},{"type":"Feature","properties":{"name":"Sample point 173","category":"value2","year":"2020","month":"12"},"geometry":{"type":"Point","coordinates":[7.72313,45.02763]}},{"type":"Feature","properties":{"name":"Sample point 174","category":"value1","year":"2022","month":"2"},"geometry":{"type":"Point","coordinates":[7.72489,45.09173]}},{"type":"Feature","properties":{"name":"Sample point 175","category":"value1","year":"2021","month":"1"},"geometry":{"type":"Point","coordinates":[7.76428,45.10581]}},{"type":"Feature","properties":{"name":"Sample point 176","category":"value3","year":"2019","month":"11"},"geometry":{"type":"Point","coordinates":[7.73726,45.11476]}},{"type":"Feature","properties":{"name":"Sample point 177","category":"value1","year":"2022","month":"11"},"geometry":{"type":"Point","coordinates":[7.68166,45.06337]}},{"type":"Feature","properties":{"name":"Sample point 178","category":"value1","year":"2022","month":"12"},"geometry":{"type":"Point","coordinates":[7.62079,45.08408]}},{"type":"Feature","properties":{"name":"Sample point 179","category":"value1","year":"2022","month":"10"},"geometry":{"type":"Point","coordinates":[7.61472,45.09347]}},{"type":"Feature","properties":{"name":"Sample point 180","category":"value3","year":"2020","month":"10"},"geometry":{"type":"Point","coordinates":[7.72116,45.1044]}},{"type":"Feature","properties":{"name":"Sample point 181","category":"value1","year":"2019","month":"10"},"geometry":{"type":"Point","coordinates":[7.71182,45.02324]}},{"type":"Feature","properties":{"name":"Sample point 182","category":"value4","year":"2021","month":"12"},"geometry":{"type":"Point","coordinates":[7.69303,45.0715]}},{"type":"Feature","properties":{"name":"Sample point 183","category":"value1","year":"2020","month":"1"},"geometry":{"type":"Point","coordinates":[7.70029,45.07386]}},{"type":"Feature","properties":{"name":"Sample point 184","category":"value3","year":"2020","month":"2"},"geometry":{"type":"Point","coordinates":[7.70637,45.06994]}},{"type":"Feature","properties":{"name":"Sample point 185","category":"value3","year":"2020","month":"1"},"geometry":{"type":"Point","coordinates":[7.70174,45.03627]}},{"type":"Feature","properties":{"name":"Sample point 186","category":"value1","year":"2021","month":"10"},"geometry":{"type":"Point","coordinates":[7.61987,45.08591]}},{"type":"Feature","properties":{"name":"Sample point 187","category":"value2","year":"2021","month":"11"},"geometry":{"type":"Point","coordinates":[7.73609,45.12353]}},{"type":"Feature","properties":{"name":"Sample point 188","category":"value1","year":"2020","month":"12"},"geometry":{"type":"Point","coordinates":[7.73552,45.10254]}},{"type":"Feature","properties":{"name":"Sample point 189","category":"value1","year":"2021","month":"1"},"geometry":{"type":"Point","coordinates":[7.616,45.07301]}},{"type":"Feature","properties":{"name":"Sample point 190","category":"value3","year":"2019","month":"3"},"geometry":{"type":"Point","coordinates":[7.67948,45.06388]}},{"type":"Feature","properties":{"name":"Sample point 191","category":"value1","year":"2021","month":"11"},"geometry":{"type":"Point","coordinates":[7.70602,45.01165]}},{"type":"Feature","properties":{"name":"Sample point 192","category":"value1","year":"2020","month":"11"},"geometry":{"type":"Point","coordinates":[7.72386,45.11208]}},{"type":"Feature","properties":{"name":"Sample point 193","category":"value1","year":"2021","month":"12"},"geometry":{"type":"Point","coordinates":[7.68275,45.08069]}},{"type":"Feature","properties":{"name":"Sample point 194","category":"value1","year":"2022","month":"10"},"geometry":{"type":"Point","coordinates":[7.68675,45.06393]}},{"type":"Feature","properties":{"name":"Sample point 195","category":"value1","year":"2019","month":"1"},"geometry":{"type":"Point","coordinates":[7.63196,45.08738]}},{"type":"Feature","properties":{"name":"Sample point 196","category":"value1","year":"2021","month":"11"},"geometry":{"type":"Point","coordinates":[7.69814,45.07044]}},{"type":"Feature","properties":{"name":"Sample point 197","category":"value1","year":"2021","month":"11"},"geometry":{"type":"Point","coordinates":[7.72821,45.10425]}},{"type":"Feature","properties":{"name":"Sample point 198","category":"value3","year":"2020","month":"10"},"geometry":{"type":"Point","coordinates":[7.708,45.02157]}},{"type":"Feature","properties":{"name":"Sample point 199","category":"value2","year":"2021","month":"10"},"geometry":{"type":"Point","coordinates":[7.69308,45.07226]}},{"type":"Feature","properties":{"name":"Sample point 200","category":"value3","year":"2021","month":"11"},"geometry":{"type":"Point","coordinates":[7.63089,45.08967]}},{"type":"Feature","properties":{"name":"Sample point 201","category":"value2","year":"2020","month":"1"},"geometry":{"type":"Point","coordinates":[7.69528,45.01381]}},{"type":"Feature","properties":{"name":"Sample point 202","category":"value1","year":"2020","month":"1"},"geometry":{"type":"Point","coordinates":[7.68941,45.07107]}},{"type":"Feature","properties":{"name":"Sample point 203","category":"value4","year":"2020","month":"10"},"geometry":{"type":"Point","coordinates":[7.70204,45.07118]}},{"type":"Feature","properties":{"name":"Sample point 204","category":"value2","year":"2022","month":"11"},"geometry":{"type":"Point","coordinates":[7.7198,45.09882]}},{"type":"Feature","properties":{"name":"Sample point 205","category":"value2","year":"2022","month":"12"},"geometry":{"type":"Point","coordinates":[7.73255,45.10012]}},{"type":"Feature","properties":{"name":"Sample point 206","category":"value4","year":"2019","month":"12"},"geometry":{"type":"Point","coordinates":[7.6778,45.07711]}},{"type":"Feature","properties":{"name":"Sample point 207","category":"value1","year":"2019","month":"1"},"geometry":{"type":"Point","coordinates":[7.72518,45.04738]}},{"type":"Feature","properties":{"name":"Sample point 208","category":"value4","year":"2021","month":"12"},"geometry":{"type":"Point","coordinates":[7.64809,45.07736]}},{"type":"Feature","properties":{"name":"Sample point 209","category":"value1","year":"2021","month":"3"},"geometry":{"type":"Point","coordinates":[7.68537,45.08168]}},{"type":"Feature","properties":{"name":"Sample point 210","category":"value1","year":"2020","month":"12"},"geometry":{"type":"Point","coordinates":[7.74917,45.10578]}},{"type":"Feature","properties":{"name":"Sample point 211","category":"value1","year":"2022","month":"3"},"geometry":{"type":"Point","coordinates":[7.75558,45.09523]}},{"type":"Feature","properties":{"name":"Sample point 212","category":"value4","year":"2022","month":"10"},"geometry":{"type":"Point","coordinates":[7.71986,45.11239]}},{"type":"Feature","properties":{"name":"Sample point 213","category":"value2","year":"2021","month":"2"},"geometry":{"type":"Point","coordinates":[7.69495,45.06277]}},{"type":"Feature","properties":{"name":"Sample point 214","category":"value4","year":"2020","month":"1"},"geometry":{"type":"Point","coordinates":[7.70343,45.01778]}},{"type":"Feature","properties":{"name":"Sample point 215","category":"value1","year":"2020","month":"12"},"geometry":{"type":"Point","coordinates":[7.69967,45.07842]}},{"type":"Feature","properties":{"name":"Sample point 216","category":"value2","year":"2019","month":"12"},"geometry":{"type":"Point","coordinates":[7.69333,45.07125]}},{"type":"Feature","properties":{"name":"Sample point 217","category":"value2","year":"2021","month":"2"},"geometry":{"type":"Point","coordinates":[7.68653,45.06699]}},{"type":"Feature","properties":{"name":"Sample point 218","category":"value2","year":"2022","month":"1"},"geometry":{"type":"Point","coordinates":[7.70156,45.05994]}},{"type":"Feature","properties":{"name":"Sample point 219","category":"value1","year":"2019","month":"12"},"geometry":{"type":"Point","coordinates":[7.73851,45.10452]}},{"type":"Feature","properties":{"name":"Sample point 220","category":"value3","year":"2020","month":"3"},"geometry":{"type":"Point","coordinates":[7.62056,45.09099]}},{"type":"Feature","properties":{"name":"Sample point 221","category":"value1","year":"2021","month":"1"},"geometry":{"type":"Point","coordinates":[7.62207,45.09629]}},{"type":"Feature","properties":{"name":"Sample point 222","category":"value2","year":"2022","month":"3"},"geometry":{"type":"Point","coordinates":[7.64427,45.08207]}},{"type":"Feature","properties":{"name":"Sample point 223","category":"value2","year":"2019","month":"3"},"geometry":{"type":"Point","coordinates":[7.68763,45.0681]}},{"type":"Feature","properties":{"name":"Sample point 224","category":"value1","year":"2019","month":"11"},"geometry":{"type":"Point","coordinates":[7.70271,45.00957]}},{"type":"Feature","properties":{"name":"Sample point 225","category":"value1","year":"2019","month":"1"},"geometry":{"type":"Point","coordinates":[7.62719,45.0907]}},{"type":"Feature","properties":{"name":"Sample point 226","category":"value3","year":"2020","month":"10"},"geometry":{"type":"Point","coordinates":[7.61297,45.0909]}},{"type":"Feature","properties":{"name":"Sample point 227","category":"value2","year":"2020","month":"3"},"geometry":{"type":"Point","coordinates":[7.64082,45.08742]}},{"type":"Feature","properties":{"name":"Sample point 228","category":"value1","year":"2019","month":"10"},"geometry":{"type":"Point","coordinates":[7.74496,45.09783]}},{"type":"Feature","properties":{"name":"Sample point 229","category":"value1","year":"2022","month":"12"},"geometry":{"type":"Point","coordinates":[7.67909,45.06422]}},{"type":"Feature","properties":{"name":"Sample point 230","category":"value1","year":"2021","month":"3"},"geometry":{"type":"Point","coordinates":[7.67164,45.07639]}},{"type":"Feature","properties":{"name":"Sample point 231","category":"value1","year":"2020","month":"10"},"geometry":{"type":"Point","coordinates":[7.71841,45.01413]}},{"type":"Feature","properties":{"name":"Sample point 232","category":"value3","year":"2019","month":"3"},"geometry":{"type":"Point","coordinates":[7.71718,45.09733]}},{"type":"Feature","properties":{"name":"Sample point 233","category":"value1","year":"2021","month":"2"},"geometry":{"type":"Point","coordinates":[7.60298,45.08783]}},{"type":"Feature","properties":{"name":"Sample point 234","category":"value2","year":"2020","month":"3"},"geometry":{"type":"Point","coordinates":[7.68773,45.02612]}},{"type":"Feature","properties":{"name":"Sample point 235","category":"value2","year":"2021","month":"3"},"geometry":{"type":"Point","coordinates":[7.69533,45.00944]}},{"type":"Feature","properties":{"name":"Sample point 236","category":"value2","year":"2021","month":"2"},"geometry":{"type":"Point","coordinates":[7.73147,45.07623]}},{"type":"Feature","properties":{"name":"Sample point 237","category":"value4","year":"2019","month":"2"},"geometry":{"type":"Point","coordinates":[7.73324,45.10544]}},{"type":"Feature","properties":{"name":"Sample point 238","category":"value1","year":"2021","month":"12"},"geometry":{"type":"Point","coordinates":[7.68921,45.07515]}},{"type":"Feature","properties":{"name":"Sample point 239","category":"value2","year":"2019","month":"3"},"geometry":{"type":"Point","coordinates":[7.61962,45.09266]}},{"type":"Feature","properties":{"name":"Sample point 240","category":"value1","year":"2022","month":"12"},"geometry":{"type":"Point","coordinates":[7.74697,45.09367]}}]}