{"type":"FeatureCollection","features":[{"type":"Feature","properties":{"name":"Sample buffer zone","zone":"buffer"},"geometry":{"type":"Polygon","coordinates":[[[7.7709,45.0703],[7.76987,45.07969],[7.76679,45.08884],[7.76174,45.09754],[7.75486,45.10557],[7.7463,45.11273],[7.73627,45.11884],[7.72504,45.12376],[7.71286,45.12736],[7.70004,45.12956],[7.6869,45.1303],[7.67376,45.12956],[7.66094,45.12736],[7.64876,45.12376],[7.63753,45.11884],[7.6275,45.11273],[7.61894,45.10557],[7.61206,45.09754],[7.60701,45.08884],[7.60393,45.07969],[7.6029,45.0703],[7.60393,45.06091],[7.60701,45.05176],[7.61206,45.04306],[7.61894,45.03503],[7.6275,45.02787],[7.63753,45.02176],[7.64876,45.01684],[7.66094,45.01324],[7.67376,45.01104],[7.6869,45.0103],[7.70004,45.01104],[7.71286,45.01324],[7.72504,45.01684],[7.73627,45.02176],[7.7463,45.02787],[7.75486,45.03503],[7.76174,45.04306],[7.76679,45.05176],[7.76987,45.06091],[7.7709,45.0703]]]}},{"type":"Feature","properties":{"name":"Sample core zone","zone":"core"},"geometry":{"type":"Polygon","coordinates":[[[7.7219,45.0703],[7.72147,45.07421],[7.72019,45.07803],[7.71809,45.08165],[7.71522,45.08499],[7.71165,45.08798],[7.70747,45.09053],[7.70279,45.09258],[7.69772,45.09408],[7.69238,45.09499],[7.6869,45.0953],[7.68142,45.09499],[7.67608,45.09408],[7.67101,45.09258],[7.66633,45.09053],[7.66215,45.08798],[7.65858,45.08499],[7.65571,45.08165],[7.65361,45.07803],[7.65233,45.07421],[7.6519,45.0703],[7.65233,45.06639],[7.65361,45.06257],[7.65571,45.05895],[7.65858,45.05561],[7.66215,45.05262],[7.66633,45.05007],[7.67101,45.04802],[7.67608,45.04652],[7.68142,45.04561],[7.6869,45.0453],[7.69238,45.04561],[7.69772,45.04652],[7.70279,45.04802],[7.70747,45.05007],[7.71165,45.05262],[7.71522,45.05561],[7.71809,45.05895],[7.72019,45.06257],[7.72147,45.06639],[7.7219,45.0703]]]}}]}